LUCH 5V                 
1 39727U 14023A   17121.61583868 -.00000293  00000-0  00000-0 0  9990
2 39727   2.7975 299.0186 0002856 100.0447 137.0128  1.00267490529098
KAZSAT-3                
1 39728U 14023B   17121.22824069  .00000039  00000-0  00000-0 0  9996
2 39728   0.0142 301.2204 0001191 178.2259 240.5644  1.00271457  9029
EUTELSAT 3B             
1 39773U 14030A   17121.88243775 -.00000003  00000-0  00000-0 0  9997
2 39773   0.0741 330.6248 0001699  66.0027 144.1179  1.00271352 10655
ASIASAT 8               
1 40107U 14046A   17121.40104993 -.00000056  00000-0  00000-0 0  9991
2 40107   0.0443  78.8036 0001086 276.3467   4.8472  1.00270895 68738
ASIASAT 6               
1 40141U 14052A   17121.89394582 -.00000385  00000-0  00000-0 0  9999
2 40141   0.0366  83.2393 0000702 310.8729 267.6225  1.00271754  9639
OPTUS 10                
1 40146U 14054A   17120.93596669 -.00000096  00000-0  00000-0 0  9999
2 40146   0.0971 349.1577 0001540  45.4296 325.4223  1.00271368  9693
MEASAT-3B               
1 40147U 14054B   17121.13678985 -.00000264  00000-0  00000-0 0  9992
2 40147   0.0391  47.0226 0002607 337.8152 335.1739  1.00273017  9489
LUCH (OLYMP)            
1 40258U 14058A   17121.58452155  .00000045  00000-0  00000-0 0  9993
2 40258   0.0084 190.1794 0000441 185.5161  64.3381  1.00272600  9518
HIMAWARI-8              
1 40267U 14060A   17121.00067182 -.00000297  00000-0  00000-0 0  9995
2 40267   0.0346  76.8666 0000689 345.9153 297.2245  1.00272615  9336
IRNSS-1C                
1 40269U 14061A   17120.85914551 -.00000185  00000-0  00000-0 0  9997
2 40269   3.1101 251.2650 0018807   8.1915 351.8734  1.00272892  9256
INTELSAT 30 (IS-30)     
1 40271U 14062A   17121.36484567 -.00000172  00000-0  00000-0 0  9993
2 40271   0.0105 264.6418 0001308 195.3427 155.7814  1.00270374  9268
ARSAT 1                 
1 40272U 14062B   17121.48243876 -.00000281  00000-0  00000-0 0  9994
2 40272   0.0328 111.1700 0001063 272.9051 297.4157  1.00270436  9183
EXPRESS-AM6             
1 40277U 14064A   17121.92003035  .00000075  00000-0  00000-0 0  9991
2 40277   0.0094 320.1444 0000364 131.6651 152.4310  1.00272575  8169
GSAT-16                 
1 40332U 14078A   17121.23789686  .00000063  00000-0  00000-0 0  9992
2 40332   0.0251 261.0184 0006578 163.2633 295.7852  1.00273136  8700
DIRECTV 14              
1 40333U 14078B   17121.40157186 -.00000147  00000-0  00000-0 0  9990
2 40333   0.0128 266.9050 0000436  40.3126 317.6285  1.00271285  8739
YAMAL 401               
1 40345U 14082A   17120.63626259 -.00000248  00000-0  00000-0 0  9996
2 40345   0.0689  79.1823 0001215   6.8817  91.6806  1.00269532  8972
ASTRA 2G                
1 40364U 14089A   17121.31224328  .00000128  00000-0  00000-0 0  9997
2 40364   0.0414  36.9791 0004632   8.8585 314.1993  1.00272449  8548
FENGYUN 2G              
1 40367U 14090A   17121.96331304 -.00000353  00000-0  00000-0 0  9997
2 40367   0.5279 259.9741 0003818 327.8236  83.5809  1.00278841  8612
INMARSAT 5-F2           
1 40384U 15005A   17121.61368748 -.00000308  00000-0  00000-0 0  9997
2 40384   0.0173 261.2032 0000389  51.2866  73.1483  1.00270040  7597
ABS-3A                  
1 40424U 15010A   17121.39831267 -.00000048  00000-0  00000-0 0  9995
2 40424   0.0128 281.2558 0001975  43.0508  35.6788  1.00271631  8006
EUTELSAT 115 WEST B     
1 40425U 15010B   17120.71127411 -.00000045  00000-0  00000-0 0  9997
2 40425   0.0108  93.5947 0000326 335.6991 290.7099  1.00271971  7977
EXPRESS-AM7             
1 40505U 15012A   17121.56994019  .00000128  00000-0  00000-0 0  9999
2 40505   0.0015 118.5858 0002299 252.9051  93.3526  1.00269962  7936
IRNSS-1D                
1 40547U 15018A   17120.90275242 -.00000331  00000-0  00000-0 0  9995
2 40547  29.1646 295.7769 0020175 179.5486 180.3835  1.00268108  7562
BEIDOU I1-S             
1 40549U 15019A   17121.57370742 -.00000156  00000-0  00000-0 0  9998
2 40549  54.4402 334.3009 0039683 181.5446   1.0405  1.00252056  7652
THOR 7                  
1 40613U 15022A   17121.39214544 -.00000030  00000-0  00000-0 0  9992
2 40613   0.0435  98.0740 0002654 294.3493 327.5916  1.00272077  7407
TURKMENALEM52E/MONACOSAT
1 40617U 15023A   17121.24626020  .00000082  00000-0  00000-0 0  9993
2 40617   0.0252  16.9526 0002721  20.0874 322.9777  1.00270777  7411
DIRECTV 15              
1 40663U 15026A   17120.67761857 -.00000123  00000-0  00000-0 0  9998
2 40663   0.0049 219.2659 0000254  92.5988  48.1334  1.00272182  7104
SKY MEXICO-1            
1 40664U 15026B   17120.61130505 -.00000254  00000-0  00000-0 0  9998
2 40664   0.0105 240.5657 0002016 150.4867 328.9595  1.00270064  7128
METEOSAT-11 (MSG-4)     
1 40732U 15034A   17121.07855715 -.00000050  00000-0  00000-0 0  9995
2 40732   1.9043 243.7293 0000762 130.2235 229.9501  1.00273465  6615
STAR ONE C4             
1 40733U 15034B   17120.58695980 -.00000285  00000-0  00000-0 0  9997
2 40733   0.0665  73.2814 0002678 315.7473 330.9868  1.00272458  6602
INTELSAT 34 (IS-34)     
1 40874U 15039A   17120.54669864 -.00000305  00000-0  00000-0 0  9999
2 40874   0.0190 263.8132 0000583 332.4314 123.7505  1.00272399  6244
EUTELSAT 8 WEST B       
1 40875U 15039B   17121.41248103 -.00000087  00000-0  00000-0 0  9993
2 40875   0.0698  16.7726 0003252  13.3077 329.9368  1.00272652  6260
GSAT-6                  
1 40880U 15041A   17121.16013473 -.00000187  00000-0  00000-0 0  9995
2 40880   0.0480 110.9953 0006735 177.6630  71.2678  1.00271671  6229
INMARSAT 5-F3           
1 40882U 15042A   17120.89273193  .00000029  00000-0  00000-0 0  9998
2 40882   0.0197 262.2394 0000166 286.6031 171.1571  1.00269929  6139
TJS-1                   
1 40892U 15046A   17121.60674458 -.00000179  00000-0  00000-0 0  9999
2 40892   0.0564 276.4466 0007411 110.5113 206.1884  1.00272094  6123
EXPRESS-AM8             
1 40895U 15048A   17119.83099334 -.00000129  00000-0  00000-0 0  9995
2 40895   0.0069 320.0865 0000856 144.1158  38.9283  1.00271725  5935
BEIDOU I2-S             
1 40938U 15053A   17121.97841878 -.00000143  00000-0  00000-0 0  9991
2 40938  54.2706 297.1911 0048271 171.8805 197.8624  1.00261654  5942
SKY MUSTER (NBN1A)      
1 40940U 15054A   17121.00177762 -.00000300  00000-0  00000-0 0  9998
2 40940   0.0167 268.1604 0001671 119.4903 332.3577  1.00271728  5869
ARSAT 2                 
1 40941U 15054B   17120.61738358 -.00000245  00000-0  00000-0 0  9997
2 40941   0.0318  87.9624 0001315 310.0795 321.9679  1.00270926  5899
MORELOS 3               
1 40946U 15056A   17121.61947405 -.00000073  00000-0  00000-0 0  9999
2 40946   6.4833 329.7783 0000980 356.0044   3.8516  1.00272691  5867
APSTAR 9                
1 40982U 15059A   17120.99687751 -.00000287  00000-0  00000-0 0  9994
2 40982   0.0197 261.5939 0001030  53.4172  44.9801  1.00273071  5735
TURKSAT 4B              
1 40984U 15060A   17121.25183771  .00000093  00000-0  00000-0 0  9995
2 40984   0.0419  79.7413 0002075 308.3250 331.9438  1.00272848  5690
CHINASAT 2C (ZX 2C)     
1 41021U 15063A   17121.83868735 -.00000347  00000-0  00000-0 0  9998
2 41021   0.0234   6.3899 0002908  29.9664 228.9283  1.00269165  5581
GSAT-15                 
1 41028U 15065A   17121.13132185 -.00000279  00000-0  00000-0 0  9997
2 41028   0.0280 263.1159 0003040 117.4253 339.4703  1.00271461  5437
BADR-7 (ARABSAT-6B)     
1 41029U 15065B   17121.31815359  .00000123  00000-0  00000-0 0  9996
2 41029   0.0573 260.9863 0002599 354.8006 104.1830  1.00272968  5320
LAOSAT 1                
1 41034U 15067A   17121.03425412 -.00000365  00000-0  00000-0 0  9999
2 41034   0.0519  79.9086 0000951 187.3546  92.7252  1.00270410  5419
TELSTAR 12V             
1 41036U 15068A   17120.43457321 -.00000139  00000-0  00000-0 0  9998
2 41036   0.0200 266.3803 0002063 117.4854 336.1449  1.00271393  5198
CHINASAT 1C (ZX 1C)     
1 41103U 15073A   17121.84840899 -.00000174  00000-0  00000-0 0  9990
2 41103   0.0069 297.7378 0003139  18.1280 291.0424  1.00271481  5242
ELEKTRO-L 2             
1 41105U 15074A   17117.47930025 -.00000109  00000-0  00000-0 0  9996
2 41105   0.0633  57.2317 0002068  11.7263  35.2424  1.00271515  5058
COSMOS 2513             
1 41121U 15075A   17121.96426942 -.00000161  00000-0  00000-0 0  9990
2 41121   0.0785  88.4194 0003317 326.6455 232.3922  1.00271127  5177
EXPRESS-AMU1            
1 41191U 15082A   17121.99040652  .00000132  00000-0  00000-0 0  9995
2 41191   0.0055 268.4195 0001825 104.9062 239.4261  1.00273801  5083
GAOFEN 4                
1 41194U 15083A   17121.96331304 -.00000358  00000-0  00000-0 0  9994
2 41194   0.0028 199.3876 0002951  17.1172  96.0753  1.00272875  5052
BELINTERSAT-1           
1 41238U 16001A   17121.91653201  .00000083  00000-0  10000-3 0  9990
2 41238   0.0710  86.7678 0001096 320.0254 194.6812  1.00274005  4859
IRNSS-1E                
1 41241U 16003A   17121.40032744 -.00000278  00000-0  00000-0 0  9996
2 41241  28.7095 115.4959 0019963 187.1106 172.8469  1.00274597  4669
INTELSAT 29E (IS-29E)   
1 41308U 16004A   17120.53153144 -.00000302  00000-0  00000-0 0  9990
2 41308   0.0122 259.5126 0001609 128.9025 331.5944  1.00271084  4754
EUTELSAT 9B             
1 41310U 16005A   17121.36535683  .00000040  00000-0  00000-0 0  9996
2 41310   0.0673 100.5779 0003956 239.3367  20.0685  1.00271487  4692
SES-9                   
1 41380U 16013A   17121.09026318 -.00000367  00000-0  00000-0 0  9995
2 41380   0.0218 301.7968 0001401 100.0334 318.1797  1.00271846  4076
EUTELSAT 65 WEST A      
1 41382U 16014A   17120.57364827 -.00000296  00000-0  00000-0 0  9991
2 41382   0.0564  33.5119 0001840 358.3807 328.1190  1.00269958  4136
IRNSS-1F                
1 41384U 16015A   17121.04053140  .00000133  00000-0  00000-0 0  9999
2 41384   4.2552 266.2610 0021376 175.7391 184.2167  1.00275209  4262
